OBJECT_NAME,OBJECT_ID,EPOCH,MEAN_MOTION,ECCENTRICITY,INCLINATION,RA_OF_ASC_NODE,ARG_OF_PERICENTER,MEAN_ANOMALY,EPHEMERIS_TYPE,CLASSIFICATION_TYPE,NORAD_CAT_ID,ELEMENT_SET_NO,REV_AT_EPOCH,BSTAR,MEAN_MOTION_DOT,MEAN_MOTION_DDOT
BEIDOU-3S IGSO-2S,2015-053A,2026-06-17T16:55:35.145696,1.00258762,.00655824,49.2207,258.7761,192.0839,164.1337,0,U,40938,999,3935,0,-.132E-5,0
SKY MUSTER 1 (NBN1A),2015-054A,2026-06-17T17:03:23.052672,1.00268158,.00016128,0.0234,353.3035,92.6240,216.1098,0,U,40940,999,3926,0,0,0
ARSAT 2,2015-054B,2026-06-17T21:08:17.450592,1.00270518,.00019798,0.0381,62.3668,7.7717,72.0565,0,U,40941,999,3931,0,-.23E-5,0
MORELOS 3,2015-056A,2026-06-17T11:15:38.600928,1.00273381,.00010482,3.1869,15.0767,6.6271,299.8511,0,U,40946,999,3928,0,-.5E-6,0
LINGQIAO VIDEO A,2015-057B,2026-06-17T23:18:25.377984,14.77394414,.00151609,97.6615,163.7342,267.7039,92.2436,0,U,40959,999,57552,.93598569E-4,.618E-5,0
LINGQIAO VIDEO B,2015-057C,2026-06-17T22:44:45.117888,14.77499685,.00153137,97.6580,164.8752,267.7331,92.2127,0,U,40960,999,57556,.75199761E-4,.488E-5,0
JILIN-1,2015-057D,2026-06-17T23:03:45.885600,14.78161530,.00153325,97.6507,168.2892,260.1921,99.7559,0,U,40961,999,57572,.95958419E-4,.647E-5,0
AEROCUBE 5C,2015-058B,2026-06-17T12:08:45.871008,14.91454811,.01307566,64.7676,261.5986,63.1470,298.2940,0,U,40965,999,36570,.16077043E-3,.1718E-4,0
AEROCUBE 7,2015-058C,2026-06-17T12:02:10.409568,14.95727167,.0120478,64.7618,243.8316,61.5772,299.7422,0,U,40966,999,36600,.20684879E-3,.2489E-4,0
FOX-1A (AO-85),2015-058D,2026-06-17T14:54:02.221920,14.90971345,.01304986,64.7761,277.6363,56.4134,304.9355,0,U,40967,999,11363,.17288103E-3,.1835E-4,0
SINOD-D 1,2015-058E,2026-06-17T11:30:22.282848,14.95907070,.01190493,64.7753,257.9976,52.9638,308.2295,0,U,40968,999,11670,.201744E-3,.2427E-4,0
SNAP-3 ALICE,2015-058G,2026-06-17T21:05:34.329984,15.60194157,.00281117,64.7501,101.5406,12.3667,347.8162,0,U,40970,999,11699,.1271392E-2,.107342E-2,0
LMRST-SAT,2015-058H,2026-06-17T15:26:26.692800,14.90591401,.01321043,64.7765,273.9050,58.4374,302.9558,0,U,40971,999,11362,.16024406E-3,.1676E-4,0
SNAP-3 EDDIE,2015-058J,2026-06-17T20:50:25.967040,15.61484150,.00276569,64.7423,92.2962,16.3214,343.8816,0,U,40972,999,11913,.12625922E-2,.11205E-2,0
PROPCUBE 3,2015-058K,2026-06-17T14:39:42.010560,14.94259233,.01240578,64.7683,251.2121,59.7494,301.5831,0,U,40973,999,11486,.18236387E-3,.2101E-4,0
BISONSAT,2015-058L,2026-06-17T07:07:42.623904,15.16191198,.00790342,64.7578,173.2895,47.2137,313.5598,0,U,40974,999,11563,.46211703E-3,.951E-4,0
SNAP-3 JIMI,2015-058M,2026-06-17T12:31:44.611104,15.02299948,.010619,64.7634,218.7133,55.2315,305.8742,0,U,40975,999,11427,.24618E-3,.3494E-4,0
PROPCUBE 1 (FLORA),2015-058N,2026-06-17T17:35:32.952192,14.89224245,.01307841,64.7756,293.5441,60.7107,300.7001,0,U,40976,999,11634,.17539591E-3,.1776E-4,0
SINOD-D 3,2015-058P,2026-06-17T15:25:25.648608,14.94018331,.01192893,64.7731,274.3970,57.9531,303.3103,0,U,40977,999,11482,.21502479E-3,.2465E-4,0
APSTAR-9,2015-059A,2026-06-17T22:11:56.696928,1.00271406,.00022876,0.0361,51.3665,135.9887,193.8170,0,U,40982,999,3912,0,-.271E-5,0
TURKSAT 4B,2015-060A,2026-06-17T21:45:36.721728,1.00273080,.00021088,0.0166,323.6020,108.0504,210.8877,0,U,40984,999,3910,0,.109E-5,0
NAVSTAR 75 (USA 265),2015-062A,2026-06-16T18:41:08.497248,2.00566887,.01118725,56.9590,30.8268,231.0319,128.0214,0,U,41019,999,7782,0,-.72E-6,0
ZHONGXING-2C,2015-063A,2026-06-17T22:00:57.750048,1.00270485,.00076661,0.2760,89.6718,99.3862,150.7998,0,U,41021,999,3898,0,-.329E-5,0
YAOGAN-28,2015-064A,2026-06-17T23:28:08.229792,15.27430387,.00107049,97.3081,307.2229,180.5258,179.5972,0,U,41026,999,59080,.22611823E-3,.6007E-4,0
GSAT-15,2015-065A,2026-06-17T15:27:13.912992,1.00272214,.0004225,0.0687,265.0590,164.0387,162.1043,0,U,41028,999,3880,0,-.263E-5,0
BADR-7 (ARABSAT-6B),2015-065B,2026-06-17T11:22:44.706720,1.00274878,.00040269,0.0488,237.5174,320.7911,264.1312,0,U,41029,999,3877,0,.14E-5,0
COSMOS 2510,2015-066A,2026-06-17T10:26:50.453952,2.00902956,.72018828,63.4910,346.1162,274.6775,13.7743,0,U,41032,999,7747,0,-.1633E-4,0
LAOSAT 1,2015-067A,2026-06-17T22:08:04.567776,1.00269096,.00021584,0.0441,151.8048,245.5398,329.3439,0,U,41034,999,3886,0,-.349E-5,0
TELSTAR 12V,2015-068A,2026-06-17T21:27:07.974720,1.00271035,.00021746,0.0178,11.8818,67.0840,133.9617,0,U,41036,999,3863,0,-.125E-5,0
YAOGAN-29,2015-069A,2026-06-17T22:04:44.552640,14.83087374,.00026273,98.0021,197.5539,53.7656,306.3800,0,U,41038,999,57073,.86056775E-4,.647E-5,0
